{
  "type": "FeatureCollection",
  "features": [
    {
      "type": "Feature",
      "properties": {
        "norad_id": 66912,
        "name": "1998-067XY",
        "group": "last-30-days",
        "lat": -47.58108118839879,
        "lon": 61.60379626538153,
        "alt_km": 414.70267401514593,
        "timestamp": "2025-12-16T21:38:55.919685+00:00",
        "meta_object_name": "1998-067XY",
        "meta_object_id": "1998-067XY",
        "meta_epoch": "2025-12-16T01:51:18.141984",
        "meta_mean_motion": 15.51468873,
        "meta_eccentricity": 0.00042589,
        "meta_inclination": 51.6299,
        "meta_ra_of_asc_node": 125.8265,
        "meta_arg_of_pericenter": 241.2877,
        "meta_mean_anomaly": 118.7684,
        "meta_ephemeris_type": 0,
        "meta_classification_type": "U",
        "meta_norad_cat_id": 66912,
        "meta_element_set_no": 999,
        "meta_rev_at_epoch": 212,
        "meta_bstar": 0.00068474677,
        "meta_mean_motion_dot": 0.00040934,
        "meta_mean_motion_ddot": 0,
        "tle_line1": "1 66912U 98067XY  25350.07729331  .00040934  00000+0  68475-3 0  9993",
        "tle_line2": "2 66912  51.6299 125.8265 0004258 241.2877 118.7684 15.51468873  2125"
      },
      "geometry": {
        "type": "Point",
        "coordinates": [
          61.60379626538153,
          -47.58108118839879
        ]
      }
    },
    {
      "type": "Feature",
      "properties": {
        "norad_id": 66913,
        "name": "2025-284A",
        "group": "last-30-days",
        "lat": 65.29868952057608,
        "lon": -77.08299245754102,
        "alt_km": 500.91363935291156,
        "timestamp": "2025-12-16T21:38:55.919694+00:00",
        "meta_object_name": "2025-284A",
        "meta_object_id": "2025-284A",
        "meta_epoch": "2025-12-16T08:29:01.515264",
        "meta_mean_motion": 15.16427692,
        "meta_eccentricity": 0.00202828,
        "meta_inclination": 80.4051,
        "meta_ra_of_asc_node": 125.1874,
        "meta_arg_of_pericenter": 163.0445,
        "meta_mean_anomaly": 197.1464,
        "meta_ephemeris_type": 0,
        "meta_classification_type": "U",
        "meta_norad_cat_id": 66913,
        "meta_element_set_no": 999,
        "meta_rev_at_epoch": 167,
        "meta_bstar": 0.00036405998,
        "meta_mean_motion_dot": 7.134e-05,
        "meta_mean_motion_ddot": 0,
        "tle_line1": "1 66913U 25284A   25350.35348976  .00007134  00000+0  36406-3 0  9992",
        "tle_line2": "2 66913  80.4051 125.1874 0020282 163.0445 197.1464 15.16427692  1679"
      },
      "geometry": {
        "type": "Point",
        "coordinates": [
          -77.08299245754102,
          65.29868952057608
        ]
      }
    },
    {
      "type": "Feature",
      "properties": {
        "norad_id": 66914,
        "name": "2025-284B",
        "group": "last-30-days",
        "lat": 49.841466742730866,
        "lon": -67.07543052513319,
        "alt_km": 505.6525924525149,
        "timestamp": "2025-12-16T21:38:55.919704+00:00",
        "meta_object_name": "2025-284B",
        "meta_object_id": "2025-284B",
        "meta_epoch": "2025-12-16T06:51:11.417184",
        "meta_mean_motion": 15.18985981,
        "meta_eccentricity": 0.00081793,
        "meta_inclination": 80.4045,
        "meta_ra_of_asc_node": 125.2713,
        "meta_arg_of_pericenter": 234.9626,
        "meta_mean_anomaly": 125.0834,
        "meta_ephemeris_type": 0,
        "meta_classification_type": "U",
        "meta_norad_cat_id": 66914,
        "meta_element_set_no": 999,
        "meta_rev_at_epoch": 166,
        "meta_bstar": 0.00038444995,
        "meta_mean_motion_dot": 8.068e-05,
        "meta_mean_motion_ddot": 0,
        "tle_line1": "1 66914U 25284B   25350.28554881  .00008068  00000+0  38445-3 0  9991",
        "tle_line2": "2 66914  80.4045 125.2713 0008179 234.9626 125.0834 15.18985981  1668"
      },
      "geometry": {
        "type": "Point",
        "coordinates": [
          -67.07543052513319,
          49.841466742730866
        ]
      }
    },
    {
      "type": "Feature",
      "properties": {
        "norad_id": 66915,
        "name": "HULIANWANG DIGUI-105",
        "group": "last-30-days",
        "lat": -3.6321397413731162,
        "lon": 97.26744862887072,
        "alt_km": 878.9344319315842,
        "timestamp": "2025-12-16T21:38:55.919714+00:00",
        "meta_object_name": "HULIANWANG DIGUI-105",
        "meta_object_id": "2025-285A",
        "meta_epoch": "2025-12-16T08:00:09.019872",
        "meta_mean_motion": 14.03716682,
        "meta_eccentricity": 0.00079557,
        "meta_inclination": 50.0044,
        "meta_ra_of_asc_node": 102.6383,
        "meta_arg_of_pericenter": 294.7419,
        "meta_mean_anomaly": 65.2657,
        "meta_ephemeris_type": 0,
        "meta_classification_type": "U",
        "meta_norad_cat_id": 66915,
        "meta_element_set_no": 999,
        "meta_rev_at_epoch": 141,
        "meta_bstar": 0.0001968072,
        "meta_mean_motion_dot": 1.6e-06,
        "meta_mean_motion_ddot": 0,
        "tle_line1": "1 66915U 25285A   25350.33343773  .00000160  00000+0  19681-3 0  9991",
        "tle_line2": "2 66915  50.0044 102.6383 0007955 294.7419  65.2657 14.03716682  1412"
      },
      "geometry": {
        "type": "Point",
        "coordinates": [
          97.26744862887072,
          -3.6321397413731162
        ]
      }
    },
    {
      "type": "Feature",
      "properties": {
        "norad_id": 66916,
        "name": "HULIANWANG DIGUI-106",
        "group": "last-30-days",
        "lat": 7.742905980418729,
        "lon": 106.84990056560856,
        "alt_km": 879.6606718617604,
        "timestamp": "2025-12-16T21:38:55.919725+00:00",
        "meta_object_name": "HULIANWANG DIGUI-106",
        "meta_object_id": "2025-285B",
        "meta_epoch": "2025-12-16T07:55:54.477696",
        "meta_mean_motion": 14.03701369,
        "meta_eccentricity": 0.0006769,
        "meta_inclination": 50.0054,
        "meta_ra_of_asc_node": 102.6239,
        "meta_arg_of_pericenter": 287.7207,
        "meta_mean_anomaly": 72.2958,
        "meta_ephemeris_type": 0,
        "meta_classification_type": "U",
        "meta_norad_cat_id": 66916,
        "meta_element_set_no": 999,
        "meta_rev_at_epoch": 141,
        "meta_bstar": -9.343864e-06,
        "meta_mean_motion_dot": -1.66e-06,
        "meta_mean_motion_ddot": 0,
        "tle_line1": "1 66916U 25285B   25350.33049164 -.00000166  00000+0 -93439-5 0  9992",
        "tle_line2": "2 66916  50.0054 102.6239 0006769 287.7207  72.2958 14.03701369  1411"
      },
      "geometry": {
        "type": "Point",
        "coordinates": [
          106.84990056560856,
          7.742905980418729
        ]
      }
    },
    {
      "type": "Feature",
      "properties": {
        "norad_id": 66917,
        "name": "HULIANWANG DIGUI-107",
        "group": "last-30-days",
        "lat": 16.01985292065989,
        "lon": 114.21894516794512,
        "alt_km": 876.7565366114432,
        "timestamp": "2025-12-16T21:38:55.919735+00:00",
        "meta_object_name": "HULIANWANG DIGUI-107",
        "meta_object_id": "2025-285C",
        "meta_epoch": "2025-12-16T07:53:05.441280",
        "meta_mean_motion": 14.04225605,
        "meta_eccentricity": 0.00074196,
        "meta_inclination": 50.0019,
        "meta_ra_of_asc_node": 102.6082,
        "meta_arg_of_pericenter": 296.3976,
        "meta_mean_anomaly": 63.6167,
        "meta_ephemeris_type": 0,
        "meta_classification_type": "U",
        "meta_norad_cat_id": 66917,
        "meta_element_set_no": 999,
        "meta_rev_at_epoch": 141,
        "meta_bstar": 0.00016406685,
        "meta_mean_motion_dot": 1.1e-06,
        "meta_mean_motion_ddot": 0,
        "tle_line1": "1 66917U 25285C   25350.32853520  .00000110  00000+0  16407-3 0  9996",
        "tle_line2": "2 66917  50.0019 102.6082 0007419 296.3976  63.6167 14.04225605  1412"
      },
      "geometry": {
        "type": "Point",
        "coordinates": [
          114.21894516794512,
          16.01985292065989
        ]
      }
    },
    {
      "type": "Feature",
      "properties": {
        "norad_id": 66918,
        "name": "HULIANWANG DIGUI-108",
        "group": "last-30-days",
        "lat": 18.752067002440977,
        "lon": 116.82550050286129,
        "alt_km": 879.2733525468266,
        "timestamp": "2025-12-16T21:38:55.919746+00:00",
        "meta_object_name": "HULIANWANG DIGUI-108",
        "meta_object_id": "2025-285D",
        "meta_epoch": "2025-12-16T16:24:17.652960",
        "meta_mean_motion": 14.03600554,
        "meta_eccentricity": 0.0006595,
        "meta_inclination": 50.0051,
        "meta_ra_of_asc_node": 101.1567,
        "meta_arg_of_pericenter": 292.7847,
        "meta_mean_anomaly": 67.236,
        "meta_ephemeris_type": 0,
        "meta_classification_type": "U",
        "meta_norad_cat_id": 66918,
        "meta_element_set_no": 999,
        "meta_rev_at_epoch": 146,
        "meta_bstar": 9.9454e-05,
        "meta_mean_motion_dot": 6e-08,
        "meta_mean_motion_ddot": 0,
        "tle_line1": "1 66918U 25285D   25350.68353765  .00000006  00000+0  99454-4 0  9990",
        "tle_line2": "2 66918  50.0051 101.1567 0006595 292.7847  67.2360 14.03600554  1461"
      },
      "geometry": {
        "type": "Point",
        "coordinates": [
          116.82550050286129,
          18.752067002440977
        ]
      }
    }
  ]
}